KAZSAT-2                
1 37749U 11035B   17346.38243720 -.00000202  00000-0  00000+0 0  9994
2 37749   0.0359 216.0702 0000871 131.3637 317.9954  1.00270342 23391
